[{"OBJECT_NAME":"STARLINK-31363","OBJECT_ID":"2024-093A","EPOCH":"2026-03-09T16:49:05.556864","MEAN_MOTION":15.2756469,"ECCENTRICITY":0.00011059,"INCLINATION":43.0027,"RA_OF_ASC_NODE":205.6275,"ARG_OF_PERICENTER":210.0856,"MEAN_ANOMALY":149.9932,"EPHEMERIS_TYPE":0,"CLASSIFICATION_TYPE":"U","NORAD_CAT_ID":59782,"ELEMENT_SET_NO":999,"REV_AT_EPOCH":10273,"BSTAR":-6.8521965e-5,"MEAN_MOTION_DOT":-2.146e-5,"MEAN_MOTION_DDOT":0},{"OBJECT_NAME":"COSMOS 1862","OBJECT_ID":"1987-055A","EPOCH":"2026-03-09T22:37:02.390592","MEAN_MOTION":15.30492139,"ECCENTRICITY":0.00097484,"INCLINATION":82.4856,"RA_OF_ASC_NODE":47.1862,"ARG_OF_PERICENTER":26.6325,"MEAN_ANOMALY":333.5414,"EPHEMERIS_TYPE":0,"CLASSIFICATION_TYPE":"U","NORAD_CAT_ID":18152,"ELEMENT_SET_NO":999,"REV_AT_EPOCH":8987,"BSTAR":0.00034125048,"MEAN_MOTION_DOT":0.00010107,"MEAN_MOTION_DDOT":0}]
